{"type": "FeatureCollection", "features": [ {"type": "Feature", "properties": {"norad_id": 58662, "name": "TIANMU-1 21", "group": "weather", "lat": -7.447810855574742, "lon": -91.24402390910544, "alt_km": 478.058990338629, "timestamp": "2025-12-02T08:59:32.362738+00:00", "meta": {"OBJECT_NAME": "TIANMU-1 21", "OBJECT_ID": "2023-208C", "EPOCH": "2025-12-02T05:02:20.887872", "MEAN_MOTION": 15.31196492, "ECCENTRICITY": 0.0006029, "INCLINATION": 97.4374, "RA_OF_ASC_NODE": 89.5693, "ARG_OF_PERICENTER": 304.0058, "MEAN_ANOMALY": 56.061, "EPHEMERIS_TYPE": 0, "CLASSIFICATION_TYPE": "U", "NORAD_CAT_ID": 58662, "ELEMENT_SET_NO": 999, "REV_AT_EPOCH": 10738, "BSTAR": 0.00046892, "MEAN_MOTION_DOT": 0.0001407, "MEAN_MOTION_DDOT": 0}, "tle": {"line1": "1 58662U 23208C   25336.20996398  .00014070  00000+0  46892-3 0  9990", "line2": "2 58662  97.4374  89.5693 0006029 304.0058  56.0610 15.31196492107388"}}, "geometry": {"type": "Point", "coordinates": [-91.24402390910544, -7.447810855574742]}}, {"type": "Feature", "properties": {"norad_id": 58663, "name": "TIANMU-1 22", "group": "weather", "lat": -73.69991681787846, "lon": -119.03911485602077, "alt_km": 490.74800622461953, "timestamp": "2025-12-02T08:59:32.362748+00:00", "meta": {"OBJECT_NAME": "TIANMU-1 22", "OBJECT_ID": "2023-208D", "EPOCH": "2025-12-02T04:43:56.076384", "MEAN_MOTION": 15.27320205, "ECCENTRICITY": 0.0003167, "INCLINATION": 97.4383, "RA_OF_ASC_NODE": 87.3213, "ARG_OF_PERICENTER": 335.5261, "MEAN_ANOMALY": 24.5827, "EPHEMERIS_TYPE": 0, "CLASSIFICATION_TYPE": "U", "NORAD_CAT_ID": 58663, "ELEMENT_SET_NO": 999, "REV_AT_EPOCH": 10722, "BSTAR": 0.00043207, "MEAN_MOTION_DOT": 0.00011495, "MEAN_MOTION_DDOT": 0}, "tle": {"line1": "1 58663U 23208D   25336.19717681  .00011495  00000+0  43207-3 0  9990", "line2": "2 58663  97.4383  87.3213 0003167 335.5261  24.5827 15.27320205107227"}}, "geometry": {"type": "Point", "coordinates": [-119.03911485602077, -73.69991681787846]}}, {"type": "Feature", "properties": {"norad_id": 58700, "name": "TIANMU-1 15", "group": "weather", "lat": 46.64301429678036, "lon": -14.138135440992082, "alt_km": 491.9970600226634, "timestamp": "2025-12-02T08:59:32.362758+00:00", "meta": {"OBJECT_NAME": "TIANMU-1 15", "OBJECT_ID": "2024-004A", "EPOCH": "2025-12-01T19:48:33.143904", "MEAN_MOTION": 15.24448553, "ECCENTRICITY": 0.0005913, "INCLINATION": 97.463, "RA_OF_ASC_NODE": 157.3347, "ARG_OF_PERICENTER": 341.8659, "MEAN_ANOMALY": 18.2366, "EPHEMERIS_TYPE": 0, "CLASSIFICATION_TYPE": "U", "NORAD_CAT_ID": 58700, "ELEMENT_SET_NO": 999, "REV_AT_EPOCH": 10568, "BSTAR": 0.00029409, "MEAN_MOTION_DOT": 7.151e-05, "MEAN_MOTION_DDOT": 0}, "tle": {"line1": "1 58700U 24004A   25335.82538361  .00007151  00000+0  29409-3 0  9994", "line2": "2 58700  97.4630 157.3347 0005913 341.8659  18.2366 15.24448553105682"}}, "geometry": {"type": "Point", "coordinates": [-14.138135440992082, 46.64301429678036]}}, {"type": "Feature", "properties": {"norad_id": 58701, "name": "TIANMU-1 16", "group": "weather", "lat": -42.96440308199285, "lon": -29.725419771665674, "alt_km": 501.66490127558154, "timestamp": "2025-12-02T08:59:32.362768+00:00", "meta": {"OBJECT_NAME": "TIANMU-1 16", "OBJECT_ID": "2024-004B", "EPOCH": "2025-11-28T17:21:14.562144", "MEAN_MOTION": 15.24146454, "ECCENTRICITY": 0.00054689, "INCLINATION": 97.457, "RA_OF_ASC_NODE": 153.6495, "ARG_OF_PERICENTER": 351.9748, "MEAN_ANOMALY": 8.1401, "EPHEMERIS_TYPE": 0, "CLASSIFICATION_TYPE": "U", "NORAD_CAT_ID": 58701, "ELEMENT_SET_NO": 999, "REV_AT_EPOCH": 10521, "BSTAR": 5.4123761e-05, "MEAN_MOTION_DOT": 1.245e-05, "MEAN_MOTION_DDOT": 0}, "tle": {"line1": "1 58701U 24004B   25332.72308521  .00001245  00000+0  54124-4 0  9995", "line2": "2 58701  97.4570 153.6495 0005468 351.9748   8.1401 15.24146454105217"}}, "geometry": {"type": "Point", "coordinates": [-29.725419771665674, -42.96440308199285]}}, {"type": "Feature", "properties": {"norad_id": 58702, "name": "TIANMU-1 17", "group": "weather", "lat": -52.8615551584909, "lon": 167.65068813521947, "alt_km": 497.59141940813424, "timestamp": "2025-12-02T08:59:32.362779+00:00", "meta": {"OBJECT_NAME": "TIANMU-1 17", "OBJECT_ID": "2024-004C", "EPOCH": "2025-12-01T20:37:19.568064", "MEAN_MOTION": 15.24246886, "ECCENTRICITY": 0.0004432, "INCLINATION": 97.4602, "RA_OF_ASC_NODE": 157.1742, "ARG_OF_PERICENTER": 344.5644, "MEAN_ANOMALY": 15.5457, "EPHEMERIS_TYPE": 0, "CLASSIFICATION_TYPE": "U", "NORAD_CAT_ID": 58702, "ELEMENT_SET_NO": 999, "REV_AT_EPOCH": 10568, "BSTAR": 0.00031657, "MEAN_MOTION_DOT": 7.655e-05, "MEAN_MOTION_DDOT": 0}, "tle": {"line1": "1 58702U 24004C   25335.85925426  .00007655  00000+0  31657-3 0  9998", "line2": "2 58702  97.4602 157.1742 0004432 344.5644  15.5457 15.24246886105685"}}, "geometry": {"type": "Point", "coordinates": [167.65068813521947, -52.8615551584909]}}, {"type": "Feature", "properties": {"norad_id": 58703, "name": "TIANMU-1 18", "group": "weather", "lat": 38.04760271738244, "lon": 151.99250324045462, "alt_km": 488.77761679250216, "timestamp": "2025-12-02T08:59:32.362793+00:00", "meta": {"OBJECT_NAME": "TIANMU-1 18", "OBJECT_ID": "2024-004D", "EPOCH": "2025-12-01T20:13:11.633664", "MEAN_MOTION": 15.24240282, "ECCENTRICITY": 0.0003804, "INCLINATION": 97.462, "RA_OF_ASC_NODE": 157.3504, "ARG_OF_PERICENTER": 346.3455, "MEAN_ANOMALY": 13.7679, "EPHEMERIS_TYPE": 0, "CLASSIFICATION_TYPE": "U", "NORAD_CAT_ID": 58703, "ELEMENT_SET_NO": 999, "REV_AT_EPOCH": 10568, "BSTAR": 0.00029906, "MEAN_MOTION_DOT": 7.226e-05, "MEAN_MOTION_DDOT": 0}, "tle": {"line1": "1 58703U 24004D   25335.84249576  .00007226  00000+0  29906-3 0  9991", "line2": "2 58703  97.4620 157.3504 0003804 346.3455  13.7679 15.24240282105686"}}, "geometry": {"type": "Point", "coordinates": [151.99250324045462, 38.04760271738244]}}, {"type": "Feature", "properties": {"norad_id": 58990, "name": "INSAT-3DS", "group": "weather", "lat": 0.001602701615110448, "lon": -71.53813878996247, "alt_km": 35781.173761098704, "timestamp": "2025-12-02T08:59:32.362805+00:00", "meta": {"OBJECT_NAME": "INSAT-3DS", "OBJECT_ID": "2024-033A", "EPOCH": "2025-12-02T02:11:22.196832", "MEAN_MOTION": 1.00269802, "ECCENTRICITY": 0.000158, "INCLINATION": 0.0134, "RA_OF_ASC_NODE": 265.382, "ARG_OF_PERICENTER": 348.0562, "MEAN_ANOMALY": 292.7221, "EPHEMERIS_TYPE": 0, "CLASSIFICATION_TYPE": "U", "NORAD_CAT_ID": 58990, "ELEMENT_SET_NO": 999, "REV_AT_EPOCH": 4509, "BSTAR": 0, "MEAN_MOTION_DOT": -1.35e-06, "MEAN_MOTION_DDOT": 0}, "tle": {"line1": "1 58990U 24033A   25336.09122913 -.00000135  00000+0  00000+0 0  9997", "line2": "2 58990   0.0134 265.3820 0001580 348.0562 292.7221  1.00269802 45090"}}, "geometry": {"type": "Point", "coordinates": [-71.53813878996247, 0.001602701615110448]}}, {"type": "Feature", "properties": {"norad_id": 59051, "name": "METEOR-M2 4", "group": "weather", "lat": 50.499844195345744, "lon": -77.22655785958928, "alt_km": 807.5864717886261, "timestamp": "2025-12-02T08:59:32.362816+00:00", "meta": {"OBJECT_NAME": "METEOR-M2 4", "OBJECT_ID": "2024-039A", "EPOCH": "2025-12-02T03:41:15.168192", "MEAN_MOTION": 14.22398569, "ECCENTRICITY": 0.00076, "INCLINATION": 98.6752, "RA_OF_ASC_NODE": 293.2293, "ARG_OF_PERICENTER": 27.9049, "MEAN_ANOMALY": 332.2535, "EPHEMERIS_TYPE": 0, "CLASSIFICATION_TYPE": "U", "NORAD_CAT_ID": 59051, "ELEMENT_SET_NO": 999, "REV_AT_EPOCH": 9125, "BSTAR": 4.3646e-05, "MEAN_MOTION_DOT": 5.4e-07, "MEAN_MOTION_DDOT": 0}, "tle": {"line1": "1 59051U 24039A   25336.15364778  .00000054  00000+0  43646-4 0  9993", "line2": "2 59051  98.6752 293.2293 0007600  27.9049 332.2535 14.22398569 91252"}}, "geometry": {"type": "Point", "coordinates": [-77.22655785958928, 50.499844195345744]}}, {"type": "Feature", "properties": {"norad_id": 60133, "name": "GOES 19", "group": "weather", "lat": -0.00021096799622049068, "lon": 131.15567142344102, "alt_km": 35790.96770389151, "timestamp": "2025-12-02T08:59:32.362827+00:00", "meta": {"OBJECT_NAME": "GOES 19", "OBJECT_ID": "2024-119A", "EPOCH": "2025-12-01T18:35:24.333216", "MEAN_MOTION": 1.00271597, "ECCENTRICITY": 0.0001165, "INCLINATION": 0.0159, "RA_OF_ASC_NODE": 141.7458, "ARG_OF_PERICENTER": 156.5209, "MEAN_ANOMALY": 336.2961, "EPHEMERIS_TYPE": 0, "CLASSIFICATION_TYPE": "U", "NORAD_CAT_ID": 60133, "ELEMENT_SET_NO": 999, "REV_AT_EPOCH": 498, "BSTAR": 0, "MEAN_MOTION_DOT": -2.27e-06, "MEAN_MOTION_DDOT": 0}, "tle": {"line1": "1 60133U 24119A   25335.77458719 -.00000227  00000+0  00000+0 0  9996", "line2": "2 60133   0.0159 141.7458 0001165 156.5209 336.2961  1.00271597  4984"}}, "geometry": {"type": "Point", "coordinates": [131.15567142344102, -0.00021096799622049068]}}, {"type": "Feature", "properties": {"norad_id": 65815, "name": "FENGYUN 3H", "group": "weather", "lat": 22.947896004385644, "lon": -87.50757941420082, "alt_km": 824.889135761714, "timestamp": "2025-12-02T08:59:32.362839+00:00", "meta": {"OBJECT_NAME": "FENGYUN 3H", "OBJECT_ID": "2025-219A", "EPOCH": "2025-12-02T02:07:06.300768", "MEAN_MOTION": 14.19899654, "ECCENTRICITY": 6.57e-05, "INCLINATION": 98.6568, "RA_OF_ASC_NODE": 275.9107, "ARG_OF_PERICENTER": 68.5837, "MEAN_ANOMALY": 291.541, "EPHEMERIS_TYPE": 0, "CLASSIFICATION_TYPE": "U", "NORAD_CAT_ID": 65815, "ELEMENT_SET_NO": 999, "REV_AT_EPOCH": 941, "BSTAR": 7.2183e-05, "MEAN_MOTION_DOT": 1.1e-06, "MEAN_MOTION_DDOT": 0}, "tle": {"line1": "1 65815U 25219A   25336.08826737  .00000110  00000+0  72183-4 0  9990", "line2": "2 65815  98.6568 275.9107 0000657  68.5837 291.5410 14.19899654  9417"}}, "geometry": {"type": "Point", "coordinates": [-87.50757941420082, 22.947896004385644]}}]}